00433  11.16  0.46  K194R  47.23952  178.82126  304.30627   10.82857  0.2227357  0.55978029  1.4581123  0  MPO458829  7978  52 1893-2018  0.63  M-v  38h  MPCLINUX  1804  (433)  Eros
